{"fetched_at":"2026-07-20T18:28:48.101Z","source":"https://celestrak.org/NORAD/elements/gp.php?GROUP=iridium-NEXT&FORMAT=JSON","constellation":"iridium","records":[{"OBJECT_NAME":"IRIDIUM 126","OBJECT_ID":"2017-039G","EPOCH":"2026-07-19T20:52:54.934464","CLASSIFICATION_TYPE":"U","MEAN_MOTION":14.34217875,"ECCENTRICITY":0.00020743,"INCLINATION":86.3998,"RA_OF_ASC_NODE":339.9825,"ARG_OF_PERICENTER":93.1561,"MEAN_ANOMALY":266.9872,"EPHEMERIS_TYPE":0,"NORAD_CAT_ID":42809,"ELEMENT_SET_NO":999,"REV_AT_EPOCH":47463,"BSTAR":0.00001366651,"MEAN_MOTION_DOT":5.8e-7,"MEAN_MOTION_DDOT":0},{"OBJECT_NAME":"IRIDIUM 124","OBJECT_ID":"2017-039H","EPOCH":"2026-07-20T04:37:13.413504","CLASSIFICATION_TYPE":"U","MEAN_MOTION":14.4327543,"ECCENTRICITY":0.00022597,"INCLINATION":86.4477,"RA_OF_ASC_NODE":276.5592,"ARG_OF_PERICENTER":96.8623,"MEAN_ANOMALY":263.2835,"EPHEMERIS_TYPE":0,"NORAD_CAT_ID":42810,"ELEMENT_SET_NO":999,"REV_AT_EPOCH":47987,"BSTAR":0.000038428948,"MEAN_MOTION_DOT":0.00000149,"MEAN_MOTION_DDOT":0},{"OBJECT_NAME":"IRIDIUM 128","OBJECT_ID":"2017-039J","EPOCH":"2026-07-20T00:00:30.963168","CLASSIFICATION_TYPE":"U","MEAN_MOTION":14.34218112,"ECCENTRICITY":0.0002297,"INCLINATION":86.3971,"RA_OF_ASC_NODE":11.4274,"ARG_OF_PERICENTER":93.548,"MEAN_ANOMALY":266.5979,"EPHEMERIS_TYPE":0,"NORAD_CAT_ID":42811,"ELEMENT_SET_NO":999,"REV_AT_EPOCH":47468,"BSTAR":0.000038447497,"MEAN_MOTION_DOT":0.00000127,"MEAN_MOTION_DDOT":0},{"OBJECT_NAME":"IRIDIUM 121","OBJECT_ID":"2017-039K","EPOCH":"2026-07-19T21:20:18.975264","CLASSIFICATION_TYPE":"U","MEAN_MOTION":14.34217667,"ECCENTRICITY":0.0002249,"INCLINATION":86.3999,"RA_OF_ASC_NODE":340.0025,"ARG_OF_PERICENTER":93.2688,"MEAN_ANOMALY":266.8765,"EPHEMERIS_TYPE":0,"NORAD_CAT_ID":42812,"ELEMENT_SET_NO":999,"REV_AT_EPOCH":47451,"BSTAR":0.000004696028,"MEAN_MOTION_DOT":3.3e-7,"MEAN_MOTION_DDOT":0},{"OBJECT_NAME":"IRIDIUM 133","OBJECT_ID":"2017-061A","EPOCH":"2026-07-20T04:07:06.713472","CLASSIFICATION_TYPE":"U","MEAN_MOTION":14.34218439,"ECCENTRICITY":0.00022141,"INCLINATION":86.3972,"RA_OF_ASC_NODE":11.4743,"ARG_OF_PERICENTER":91.6278,"MEAN_ANOMALY":268.5172,"EPHEMERIS_TYPE":0,"NORAD_CAT_ID":42955,"ELEMENT_SET_NO":999,"REV_AT_EPOCH":45950,"BSTAR":0.000041520107,"MEAN_MOTION_DOT":0.00000136,"MEAN_MOTION_DDOT":0},{"OBJECT_NAME":"IRIDIUM 100","OBJECT_ID":"2017-061B","EPOCH":"2026-07-19T22:56:34.824768","CLASSIFICATION_TYPE":"U","MEAN_MOTION":14.34218367,"ECCENTRICITY":0.00022195,"INCLINATION":86.397,"RA_OF_ASC_NODE":11.4823,"ARG_OF_PERICENTER":90.6706,"MEAN_ANOMALY":269.4744,"EPHEMERIS_TYPE":0,"NORAD_CAT_ID":42956,"ELEMENT_SET_NO":999,"REV_AT_EPOCH":45947,"BSTAR":0.000034381045,"MEAN_MOTION_DOT":0.00000116,"MEAN_MOTION_DDOT":0},{"OBJECT_NAME":"IRIDIUM 122","OBJECT_ID":"2017-061C","EPOCH":"2026-07-19T23:51:22.718880","CLASSIFICATION_TYPE":"U","MEAN_MOTION":14.34216904,"ECCENTRICITY":0.00021128,"INCLINATION":86.3971,"RA_OF_ASC_NODE":11.4668,"ARG_OF_PERICENTER":91.8626,"MEAN_ANOMALY":268.2812,"EPHEMERIS_TYPE":0,"NORAD_CAT_ID":42957,"ELEMENT_SET_NO":999,"REV_AT_EPOCH":45948,"BSTAR":0.000036320842,"MEAN_MOTION_DOT":0.00000121,"MEAN_MOTION_DDOT":0},{"OBJECT_NAME":"IRIDIUM 129","OBJECT_ID":"2017-061D","EPOCH":"2026-07-20T05:29:18.960288","CLASSIFICATION_TYPE":"U","MEAN_MOTION":14.34216312,"ECCENTRICITY":0.00020758,"INCLINATION":86.3972,"RA_OF_ASC_NODE":11.436,"ARG_OF_PERICENTER":86.0306,"MEAN_ANOMALY":274.1127,"EPHEMERIS_TYPE":0,"NORAD_CAT_ID":42958,"ELEMENT_SET_NO":999,"REV_AT_EPOCH":45953,"BSTAR":0.000037750443,"MEAN_MOTION_DOT":0.00000125,"MEAN_MOTION_DDOT":0},{"OBJECT_NAME":"IRIDIUM 119","OBJECT_ID":"2017-061E","EPOCH":"2026-07-20T04:43:38.942400","CLASSIFICATION_TYPE":"U","MEAN_MOTION":14.34218002,"ECCENTRICITY":0.0002106,"INCLINATION":86.3973,"RA_OF_ASC_NODE":11.4451,"ARG_OF_PERICENTER":91.8418,"MEAN_ANOMALY":268.3019,"EPHEMERIS_TYPE":0,"NORAD_CAT_ID":42959,"ELEMENT_SET_NO":999,"REV_AT_EPOCH":45954,"BSTAR":0.000039869806,"MEAN_MOTION_DOT":0.00000131,"MEAN_MOTION_DDOT":0},{"OBJECT_NAME":"IRIDIUM 107","OBJECT_ID":"2017-061F","EPOCH":"2026-07-20T05:11:02.765472","CLASSIFICATION_TYPE":"U","MEAN_MOTION":14.34217234,"ECCENTRICITY":0.00020596,"INCLINATION":86.3968,"RA_OF_ASC_NODE":11.459,"ARG_OF_PERICENTER":97.6422,"MEAN_ANOMALY":262.5007,"EPHEMERIS_TYPE":0,"NORAD_CAT_ID":42960,"ELEMENT_SET_NO":999,"REV_AT_EPOCH":45955,"BSTAR":-0.00000354328,"MEAN_MOTION_DOT":1e-7,"MEAN_MOTION_DDOT":0},{"OBJECT_NAME":"IRIDIUM 132","OBJECT_ID":"2017-061G","EPOCH":"2026-07-20T00:18:46.884960","CLASSIFICATION_TYPE":"U","MEAN_MOTION":14.3421784,"ECCENTRICITY":0.0002182,"INCLINATION":86.3972,"RA_OF_ASC_NODE":11.5228,"ARG_OF_PERICENTER":91.5396,"MEAN_ANOMALY":268.605,"EPHEMERIS_TYPE":0,"NORAD_CAT_ID":42961,"ELEMENT_SET_NO":999,"REV_AT_EPOCH":45952,"BSTAR":0.000035592734,"MEAN_MOTION_DOT":0.00000119,"MEAN_MOTION_DDOT":0},{"OBJECT_NAME":"IRIDIUM 136","OBJECT_ID":"2017-061H","EPOCH":"2026-07-19T23:23:58.812864","CLASSIFICATION_TYPE":"U","MEAN_MOTION":14.34218382,"ECCENTRICITY":0.00022488,"INCLINATION":86.3972,"RA_OF_ASC_NODE":11.5456,"ARG_OF_PERICENTER":90.6283,"MEAN_ANOMALY":269.517,"EPHEMERIS_TYPE":0,"NORAD_CAT_ID":42962,"ELEMENT_SET_NO":999,"REV_AT_EPOCH":45953,"BSTAR":0.000035476537,"MEAN_MOTION_DOT":0.00000119,"MEAN_MOTION_DDOT":0},{"OBJECT_NAME":"IRIDIUM 139","OBJECT_ID":"2017-061J","EPOCH":"2026-07-20T04:34:30.898560","CLASSIFICATION_TYPE":"U","MEAN_MOTION":14.34218423,"ECCENTRICITY":0.00022695,"INCLINATION":86.3974,"RA_OF_ASC_NODE":11.5178,"ARG_OF_PERICENTER":92.2787,"MEAN_ANOMALY":267.8669,"EPHEMERIS_TYPE":0,"NORAD_CAT_ID":42963,"ELEMENT_SET_NO":999,"REV_AT_EPOCH":45957,"BSTAR":0.000041120869,"MEAN_MOTION_DOT":0.00000135,"MEAN_MOTION_DDOT":0},{"OBJECT_NAME":"IRIDIUM 125","OBJECT_ID":"2017-061K","EPOCH":"2026-07-20T04:16:14.759904","CLASSIFICATION_TYPE":"U","MEAN_MOTION":14.34218714,"ECCENTRICITY":0.00017234,"INCLINATION":86.3975,"RA_OF_ASC_NODE":11.5848,"ARG_OF_PERICENTER":98.2506,"MEAN_ANOMALY":261.8886,"EPHEMERIS_TYPE":0,"NORAD_CAT_ID":42964,"ELEMENT_SET_NO":999,"REV_AT_EPOCH":45958,"BSTAR":0.000040286844,"MEAN_MOTION_DOT":0.00000133,"MEAN_MOTION_DDOT":0},{"OBJECT_NAME":"IRIDIUM 135","OBJECT_ID":"2017-083A","EPOCH":"2026-07-20T05:19:27.171264","CLASSIFICATION_TYPE":"U","MEAN_MOTION":14.34217578,"ECCENTRICITY":0.00021105,"INCLINATION":86.3985,"RA_OF_ASC_NODE":308.2074,"ARG_OF_PERICENTER":94.79,"MEAN_ANOMALY":265.3537,"EPHEMERIS_TYPE":0,"NORAD_CAT_ID":43070,"ELEMENT_SET_NO":999,"REV_AT_EPOCH":44888,"BSTAR":-0.000009950234,"MEAN_MOTION_DOT":-8e-8,"MEAN_MOTION_DDOT":0},{"OBJECT_NAME":"IRIDIUM 138","OBJECT_ID":"2017-083B","EPOCH":"2026-07-20T05:55:59.087424","CLASSIFICATION_TYPE":"U","MEAN_MOTION":14.34217443,"ECCENTRICITY":0.00020425,"INCLINATION":86.4,"RA_OF_ASC_NODE":307.8969,"ARG_OF_PERICENTER":94.3379,"MEAN_ANOMALY":265.805,"EPHEMERIS_TYPE":0,"NORAD_CAT_ID":43071,"ELEMENT_SET_NO":999,"REV_AT_EPOCH":44887,"BSTAR":0.000047351412,"MEAN_MOTION_DOT":0.00000152,"MEAN_MOTION_DDOT":0}]}
